OBJECT_NAME,OBJECT_ID,EPOCH,MEAN_MOTION,ECCENTRICITY,INCLINATION,RA_OF_ASC_NODE,ARG_OF_PERICENTER,MEAN_ANOMALY,EPHEMERIS_TYPE,CLASSIFICATION_TYPE,NORAD_CAT_ID,ELEMENT_SET_NO,REV_AT_EPOCH,BSTAR,MEAN_MOTION_DOT,MEAN_MOTION_DDOT
INNOSAT 3 (RS92S0),2025-155U,2026-06-24T05:55:39.855648,15.44270613,.00074679,97.4484,146.9134,134.7563,225.4294,0,U,64894,999,8205,.72419042E-3,.3335E-3,0
KNACKSAT-2,1998-067XZ,2026-06-23T15:03:25.533504,15.60494137,.00087625,51.6285,262.0701,244.0918,115.9173,0,U,67683,999,2128,.46308779E-3,.38628E-3,0
