INNOSAT 3 (RS92S0)      
1 64894U 25155U   26175.24698907  .00033350  00000+0  72419-3 0  9994
2 64894  97.4484 146.9134 0007467 134.7563 225.4294 15.44270613 82056
KNACKSAT-2              
1 67683U 98067XZ  26174.62737886  .00038628  00000+0  46309-3 0  9998
2 67683  51.6285 262.0701 0008762 244.0918 115.9173 15.60494137 21288
